     2              NAVIGATION DATA                         RINEX VERSION / TYPE
CCRINEXN V1.6.0 UX  CDDIS               13-DEC-17 23:30     PGM / RUN BY / DATE 
IGS BROADCAST EPHEMERIS FILE                                COMMENT             
    0.9313D-08 -0.1490D-07 -0.5960D-07  0.1192D-06          ION ALPHA           
    0.9626D+05 -0.1475D+06 -0.1311D+06  0.9175D+06          ION BETA            
    0.000000000000D+00 0.000000000000D+00   503808     1979 DELTA-UTC: A0,A1,T,W
    18                                                      LEAP SECONDS        
                                                            END OF HEADER       
 5 17 12 13  9 30  0.0-0.199294881895D-04 0.110489395411D-11 0.000000000000D+00
    0.210000000000D+03-0.388359375000D+02 0.511110575521D-08-0.143446479515D+01
   -0.199861824512D-05 0.529656372964D-02 0.590085983276D-05 0.515360065819D+04
    0.293400000000D+06 0.103376805782D-06 0.128106819903D+01-0.642612576485D-07
    0.946925981508D+00 0.258558593750D+03 0.631761573371D+00-0.833171911986D-08
   -0.241438628317D-09 0.100000000000D+01 0.197900000000D+04 0.000000000000D+00
    0.256000000000D+03 0.000000000000D+00-0.107102096081D-07 0.210000000000D+03
    0.288108000000D+06 0.400000000000D+01 0.000000000000D+00 0.000000000000D+00
 6 17 12 13  9 30  0.0 0.413043831941D-03 0.100186525742D-11 0.000000000000D+00
    0.210000000000D+03 0.103828125000D+02 0.451322370817D-08 0.218220709828D+01
    0.617466866970D-06 0.734604371246D-03 0.754743814468D-05 0.515379938299D+04
    0.293400000000D+06 0.158324837685D-07 0.249661665970D+00-0.568106770515D-07
    0.969477459839D+00 0.237675781250D+03-0.129805886607D+01-0.801170579002D-08
    0.377337146178D-09 0.100000000000D+01 0.197900000000D+04 0.000000000000D+00
    0.204800000000D+04 0.000000000000D+00 0.465661287308D-08 0.210000000000D+03
    0.288012000000D+06 0.400000000000D+01 0.000000000000D+00 0.000000000000D+00
 8 17 12 13  9 30  0.0-0.839405693114D-04-0.136068933898D-11 0.000000000000D+00
    0.210000000000D+03-0.402851562500D+02 0.419017453759D-08-0.168980122275D+01
   -0.214949250221D-05 0.301520939683D-02 0.106096267700D-04 0.515373711590D+04
    0.293400000000D+06-0.605359673500D-07-0.805608340090D+00-0.363215804100D-07
    0.968350136630D+00 0.177988281250D+03-0.625038448800D+00-0.789170079133D-08
    0.106433004790D-09 0.100000000000D+01 0.197900000000D+04 0.000000000000D+00
    0.256000000000D+03 0.000000000000D+00 0.558793544769D-08 0.210000000000D+03
    0.289998000000D+06 0.400000000000D+01 0.000000000000D+00 0.000000000000D+00
 9 17 12 13  9 30  0.0 0.482600938994D-03 0.417443857259D-11 0.000000000000D+00
    0.210000000000D+03 0.254531250000D+02 0.454483216764D-08-0.191951513101D+01
    0.130757689476D-05 0.109803496161D-02 0.117989256978D-04 0.515372297641D+04
    0.293400000000D+06 0.223517417908D-07 0.233575472899D+01 0.214204192162D-07
    0.952977570358D+00 0.146531250000D+03 0.172576600238D+01-0.794384582052D-08
   -0.240367155114D-09 0.100000000000D+01 0.197900000000D+04 0.000000000000D+00
    0.102400000000D+04 0.000000000000D+00 0.931322574616D-09 0.210000000000D+03
    0.288012000000D+06 0.400000000000D+01 0.000000000000D+00 0.000000000000D+00
12 17 12 13  9 30  0.0 0.360594218364D-03-0.177280412572D-11 0.000000000000D+00
    0.210000000000D+03-0.347812500000D+02 0.411088552060D-08 0.651687377806D+00
   -0.184774398804D-05 0.666682439623D-02 0.419188290834D-05 0.515367584211D+04
    0.293400000000D+06-0.614672899246D-07-0.178066651495D+01 0.372529029846D-07
    0.987739785978D+00 0.314218750000D+03 0.909509138649D+00-0.812563910722D-08
   -0.220009164265D-09 0.100000000000D+01 0.197900000000D+04 0.000000000000D+00
    0.102400000000D+04 0.000000000000D+00-0.125728547573D-07 0.210000000000D+03
    0.288060000000D+06 0.400000000000D+01 0.000000000000D+00 0.000000000000D+00
17 17 12 13  9 30  0.0-0.138476782013D-03 0.246558329309D-11 0.000000000000D+00
    0.210000000000D+03-0.556914062500D+02 0.381908765176D-08-0.222483783384D+01
   -0.278186053038D-05 0.122696574544D-01 0.107837840915D-04 0.515373508252D+04
    0.293400000000D+06 0.154599547386D-06-0.745340762915D+00 0.493600964546D-07
    0.981732329709D+00 0.178152343750D+03-0.182054887801D+01-0.749829154711D-08
    0.187329231586D-09 0.100000000000D+01 0.197900000000D+04 0.000000000000D+00
    0.204800000000D+04 0.000000000000D+00-0.111758708954D-07 0.210000000000D+03
    0.294828000000D+06 0.400000000000D+01 0.000000000000D+00 0.000000000000D+00
24 17 12 13  9 30  0.0-0.434004177805D-04-0.476063632959D-12 0.000000000000D+00
    0.210000000000D+03 0.883164062500D+02 0.485573797526D-08 0.218633538727D+01
    0.457465648651D-05 0.647650368046D-02 0.642333179712D-05 0.515367012884D+04
    0.293400000000D+06-0.179745256901D-06-0.292650766792D+01-0.325962901115D-07
    0.943646427118D+00 0.247453125000D+03 0.487857573981D+00-0.832796896365D-08
    0.245545942260D-09 0.100000000000D+01 0.197900000000D+04 0.000000000000D+00
    0.204800000000D+04 0.000000000000D+00 0.279396772385D-08 0.210000000000D+03
    0.288012000000D+06 0.400000000000D+01 0.000000000000D+00 0.000000000000D+00
25 17 12 13  9 30  0.0-0.504983472638D-03-0.622435436526D-11 0.000000000000D+00
    0.210000000000D+03-0.311484375000D+02 0.440643354564D-08 0.215276183209D+00
   -0.162422657013D-05 0.680762418779D-02 0.382773578167D-05 0.515371537363D+04
    0.293400000000D+06-0.745058059692D-08-0.183842270139D+01 0.661239027977D-07
    0.975522078616D+00 0.313882812500D+03 0.805066274082D+00-0.830439655319D-08
   -0.176971657294D-09 0.100000000000D+01 0.197900000000D+04 0.000000000000D+00
    0.102400000000D+04 0.000000000000D+00 0.558793544769D-08 0.210000000000D+03
    0.288012000000D+06 0.400000000000D+01 0.000000000000D+00 0.000000000000D+00
26 17 12 13  9 30  0.0-0.327037210809D-03 0.143316469803D-10 0.000000000000D+00
    0.210000000000D+03-0.338398437500D+02 0.477984195675D-08-0.257224688384D+00
   -0.180769711733D-05 0.237222725991D-02 0.389106571674D-05 0.515357468266D+04
    0.293400000000D+06 0.102445483208D-07-0.185741545082D+01-0.158324837685D-07
    0.957176332499D+00 0.301015625000D+03-0.694691870648D-01-0.841100813685D-08
   -0.174828710889D-09 0.100000000000D+01 0.197900000000D+04 0.000000000000D+00
    0.512000000000D+03 0.000000000000D+00 0.745058059692D-08 0.210000000000D+03
    0.291054000000D+06 0.400000000000D+01 0.000000000000D+00 0.000000000000D+00
30 17 12 13  9 30  0.0 0.121117132949D-03-0.290256707558D-11 0.000000000000D+00
    0.210000000000D+03 0.905429687500D+02 0.491966920968D-08 0.131186347967D+01
    0.471621751785D-05 0.299786764663D-02 0.548176467419D-05 0.515359580456D+04
    0.293400000000D+06-0.381842255592D-07-0.283364695035D+01 0.325962901115D-07
    0.946235972789D+00 0.265769531250D+03-0.307526875941D+01-0.840707940177D-08
    0.205365697163D-09 0.100000000000D+01 0.197900000000D+04 0.000000000000D+00
    0.204800000000D+04 0.000000000000D+00 0.372529029846D-08 0.210000000000D+03
    0.288012000000D+06 0.400000000000D+01 0.000000000000D+00 0.000000000000D+00
31 17 12 13  9 30  0.0 0.155809568241D-03-0.258637555817D-11 0.000000000000D+00
    0.210000000000D+03 0.810664062500D+02 0.443161316591D-08 0.102906780908D+01
    0.432040542364D-05 0.880827463698D-02 0.563077628613D-05 0.515357380626D+04
    0.293400000000D+06 0.149011611938D-06-0.285784206688D+01 0.132247805595D-06
    0.965281526250D+00 0.270609375000D+03-0.200427511308D+00-0.814939009655D-08
    0.171257133547D-09 0.100000000000D+01 0.197900000000D+04 0.000000000000D+00
    0.512000000000D+03 0.000000000000D+00-0.135041773319D-07 0.210000000000D+03
    0.288060000000D+06 0.400000000000D+01 0.000000000000D+00 0.000000000000D+00
32 17 12 13  9 30  0.0-0.529512297362D-03-0.189004367712D-11 0.000000000000D+00
    0.210000000000D+03 0.269726562500D+02 0.438214681972D-08-0.143377106477D+01
    0.135228037834D-05 0.150031747762D-02 0.103777274489D-04 0.515361568616D+04
    0.293400000000D+06 0.325962901115D-07 0.233992251384D+01-0.968575477600D-07
    0.957414605281D+00 0.180042968750D+03-0.266846888099D+01-0.781366182640D-08
   -0.253046254678D-09 0.100000000000D+01 0.197900000000D+04 0.000000000000D+00
    0.102400000000D+04 0.000000000000D+00 0.465661287308D-09 0.210000000000D+03
    0.288012000000D+06 0.400000000000D+01 0.000000000000D+00 0.000000000000D+00
 7 17 12 13  9 59 44.0 0.266593880951D-03-0.534328137292D-11 0.000000000000D+00
    0.480000000000D+02 0.890312500000D+02 0.465590810350D-08 0.149835680453D+01
    0.467523932457D-05 0.110748686129D-01 0.594556331634D-05 0.515370798874D+04
    0.295184000000D+06-0.145286321640D-06-0.286965467394D+01 0.894069671631D-07
    0.960581686140D+00 0.266187500000D+03-0.254518033195D+01-0.833856184101D-08
    0.126433835623D-09 0.100000000000D+01 0.197900000000D+04 0.000000000000D+00
    0.200000000000D+01 0.000000000000D+00-0.111758708954D-07 0.480000000000D+02
    0.288030000000D+06 0.000000000000D+00 0.000000000000D+00 0.000000000000D+00
 9 17 12 13  9 59 44.0 0.482607167214D-03 0.420641299570D-11 0.000000000000D+00
    0.460000000000D+02 0.263125000000D+02 0.454161774854D-08-0.165877611768D+01
    0.127404928207D-05 0.109840789810D-02 0.116042792797D-04 0.515372376061D+04
    0.295184000000D+06 0.111758708954D-07 0.233574056940D+01 0.260770320892D-07
    0.952977121974D+00 0.150531250000D+03 0.172523196121D+01-0.795247423468D-08
   -0.241438619097D-09 0.100000000000D+01 0.197900000000D+04 0.000000000000D+00
    0.200000000000D+01 0.000000000000D+00 0.931322574616D-09 0.460000000000D+02
    0.294930000000D+06 0.000000000000D+00 0.000000000000D+00 0.000000000000D+00
